#aV2024 11 24  0  0  0.00000000     288 DD+AD WGS84 FIT  NGA
## 2342      0.00000000   300.00000000 60638 0.0000000000000
+   31     2  3  4  5  6  7  8  9 10 11 12 13 14 15 16 17 18
+         19 20 21 22 23 24 25 26 27 28 29 30 31 32  0  0  0
+          0  0  0  0  0  0  0  0  0  0  0  0  0  0  0  0  0
+          0  0  0  0  0  0  0  0  0  0  0  0  0  0  0  0  0
+          0  0  0  0  0  0  0  0  0  0  0  0  0  0  0  0  0
++         2  2  2  2  2  2  2  2  2  2  2  2  2  2  2  2  2
++         2  2  2  2  2  2  2  2  2  2  2  2  2  2  0  0  0
++         0  0  0  0  0  0  0  0  0  0  0  0  0  0  0  0  0
++         0  0  0  0  0  0  0  0  0  0  0  0  0  0  0  0  0
++         0  0  0  0  0  0  0  0  0  0  0  0  0  0  0  0  0
%c cc cc ccc ccc cccc cccc cccc cccc ccccc ccccc ccccc ccccc
%c cc cc ccc ccc cccc cccc cccc cccc ccccc ccccc ccccc ccccc
%f  0.0000000  0.000000000  0.00000000000  0.000000000000000
%f  0.0000000  0.000000000  0.00000000000  0.000000000000000
%i    0    0    0    0      0      0      0      0         0
%i    0    0    0    0      0      0      0      0         0
/*      NGA, ST. LOUIS,MO.                                  
/*   EPHEMERIS COMPUTED FROM 2 DAYS OF DATA                 
/*   EPOCHA v9 SMOOTHER                                     
/*   G2296 IERS2010 SATIGS SATAPC                           
*  2024 11 24  0 30  0.00000000
P  2  13788.428432 -15143.981883  17179.774608   -307.723828                    
V  2   -812.214835  21099.174065  20154.331914      0.086586                    
P  3  21736.449046 -12782.064462  -8324.913778    607.792597                    
V  3  10423.127556  -1385.560973  30038.926820      0.099062                    
P  4  12171.596410  -9156.537485 -21753.474947    484.580276                    
V  4  19818.158802  19251.442785   2835.942037      0.063917                    
P  5 -25220.763444   4210.672623  -7486.004225   -193.924231                    
V  5   7852.440229  -5325.353559 -30102.311273     -0.011584                    
P  6  -6766.820064 -19480.040589 -16600.651690   -138.034814                    
V  6   6015.708201 -20375.640891  21473.766033     -0.296569                    
P  7   6389.785057 -25442.629332  -1475.983368    -18.507966                    
V  7   2984.763223   3217.590907 -31741.895462      0.019261                    
P  8  20352.894287    943.029664  17148.356611    421.509827                    
V  8  15772.533918  15243.387360 -18977.620329      0.098647                    
P  9   2876.898176 -16535.075509 -20661.771026    457.248672                    
V  9  20461.487752  16144.536674 -10181.196900      0.170057                    
P 10   8419.169917  12596.001179  22074.404161   -207.425093                    
V 10 -25991.372682   8589.487131   4734.540159     -0.147131                    
P 11 -13833.843666  -6439.216723 -21703.668525   -751.196897                    
V 11   7143.266014 -26693.505390   3299.697319     -0.012198                    
P 12 -24354.283743   9570.040796  -4689.384149   -554.042362                    
V 12  -6108.121954  -1270.362713  31061.779303     -0.024404                    
P 13 -20543.258364 -10710.910507  12968.059893    687.269727                    
V 13  -9324.101725 -14025.199421 -25657.024630      0.015660                    
P 14  -4146.129237 -15020.734073  21551.688734    546.146629                    
V 14  26177.510711  -7822.964568   -648.200291      0.079711                    
P 15 -20004.363675   1922.495861  16918.038319    231.390365                    
V 15 -17749.869963 -14023.106651 -18671.090435      0.045535                    
P 16  24302.931571   2402.011860 -11326.212764   -120.645080                    
V 16 -12877.570411   5074.551863 -26962.480682      0.097310                    
P 17 -10772.172557 -21701.268436  11065.592510    546.926947                    
V 17  11160.414178   7930.154410  27642.120561     -0.149734                    
P 18  -5690.779652  25814.827356    304.394694   -660.557286                    
V 18  -2603.168295   -234.150626 -32195.856754     -0.001452                    
P 19 -17685.453364 -20117.032553    634.907684    566.250253                    
V 19   2360.447573   -839.456354  31559.530169      0.043717                    
P 20 -19993.753140  -2861.730189 -17093.311061    368.477611                    
V 20  18354.245796 -12154.717245 -19481.520460     -0.003209                    
P 21  15207.704337  -8003.516819  20332.759389     96.718527                    
V 21  -1337.868432  25289.545054  12245.990387     -0.009488                    
P 22 -11950.290513 -12104.004342  20718.122584    -81.644138                    
V 22  24610.645968  -6765.910298  10746.963737     -0.027595                    
P 23  -6990.880372  16425.531391  19624.527745    369.521930                    
V 23 -23766.778536   7362.520890 -14878.882963      0.078805                    
P 24 -14250.288175  13522.012000  17226.444818   -478.414177                    
V 24    -35.188922 -23158.234253  18080.182216      0.024583                    
P 25 -14170.620348  16589.112183 -15314.366678    498.769216                    
V 25 -18660.409543   4089.513710  22472.268163     -0.003107                    
P 26  16908.111851   8232.705752 -19070.145836     15.716356                    
V 26 -21339.804175  10714.358614 -14038.834242     -0.132936                    
P 27  22435.514790  11296.646409   8971.085244    -34.614994                    
V 27   7248.424029   9460.731177 -28643.200727      0.001787                    
P 28   6755.093034  21032.110558 -14761.281254   -488.176445                    
V 28  -5288.667106  18072.624585  23356.926360     -0.114628                    
P 29  -4752.394782  15746.396530 -20870.952698   -561.449589                    
V 29 -18913.384271 -18449.023213  -9751.835849      0.030093                    
P 30  -1730.681283 -24804.324720   9101.023769   -275.689808                    
V 30   5712.723942 -10539.329406 -28363.345736      0.079114                    
P 31  12498.926342  11205.201724 -20744.235182   -221.231003                    
V 31  -6894.534814  24990.285486   9821.513756      0.006678                    
P 32  14743.973373  20661.386146   8394.423371   -569.429966                    
V 32  -9280.006171  -5029.072961  29253.641800      0.055290                    
EOF
